[{"OBJECT_NAME":"STARLINK-31985","OBJECT_ID":"2024-111W","EPOCH":"2026-03-09T10:32:05.575488","MEAN_MOTION":15.30193872,"ECCENTRICITY":0.00012086,"INCLINATION":53.1602,"RA_OF_ASC_NODE":76.8895,"ARG_OF_PERICENTER":78.2477,"MEAN_ANOMALY":281.866,"EPHEMERIS_TYPE":0,"CLASSIFICATION_TYPE":"U","NORAD_CAT_ID":60036,"ELEMENT_SET_NO":999,"REV_AT_EPOCH":9893,"BSTAR":1.4578739e-5,"MEAN_MOTION_DOT":7.3e-7,"MEAN_MOTION_DDOT":0},{"OBJECT_NAME":"COSMOS 2251 DEB","OBJECT_ID":"1993-036BTX","EPOCH":"2026-02-28T17:34:44.973408","MEAN_MOTION":15.25753352,"ECCENTRICITY":0.00216382,"INCLINATION":73.9681,"RA_OF_ASC_NODE":229.3494,"ARG_OF_PERICENTER":13.6287,"MEAN_ANOMALY":346.5492,"EPHEMERIS_TYPE":0,"CLASSIFICATION_TYPE":"U","NORAD_CAT_ID":38487,"ELEMENT_SET_NO":999,"REV_AT_EPOCH":67986,"BSTAR":0.0024802785,"MEAN_MOTION_DOT":0.00064261,"MEAN_MOTION_DDOT":0}]
